ORBCOMM FM20            
1 25416U 98046D   24300.48598773  .00003105  00000+0  11045-2 0  9996
2 25416  44.9930 207.2157 0000645 357.9638   2.1206 14.36108623370655
ORBCOMM FM16            
1 25417U 98046E   24300.52187546  .00004110  00000+0  14087-2 0  9990
2 25417  44.9927 201.3654 0003068 201.0734 158.9987 14.37413981370616
ORBCOMM FM15            
1 25418U 98046F   24300.44382393  .00003657  00000+0  12668-2 0  9997
2 25418  44.9958 206.2216 0002634 206.1106 153.9610 14.37090171370605
ORBCOMM FM14            
1 25419U 98046G   24300.44380348  .00003757  00000+0  12936-2 0  9995
2 25419  44.9949 205.0505 0001498 187.0492 173.0335 14.37349892370565
ORBCOMM FM13            
1 25420U 98046H   24300.44556507  .00003555  00000+0  12497-2 0  9997
2 25420  44.9962 210.9812 0003610 183.1511 176.9314 14.36410681369612
ORBCOMM FM21            
1 25475U 98053A   24300.47973954  .00003407  00000+0  12041-2 0  9998
2 25475  45.0080 295.4428 0001371 286.6525  73.4172 14.36233973363638
ORBCOMM FM22            
1 25476U 98053B   24300.38579942  .00003963  00000+0  13728-2 0  9998
2 25476  45.0071 292.3778 0000398 148.5195 211.5677 14.36954900363624
ORBCOMM FM23            
1 25477U 98053C   24300.43255861  .00003541  00000+0  12481-2 0  9993
2 25477  45.0078 298.0285 0000478 262.3280  97.7513 14.36300118363772
